NORAD_CAT_ID,OBJECT_NAME,OBJECT_TYPE,EPOCH,MEAN_MOTION,ECCENTRICITY,INCLINATION,RA_OF_ASC_NODE,ARG_OF_PERICENTER,MEAN_ANOMALY,BSTAR,MEAN_MOTION_DOT,MEAN_MOTION_DDOT,TLE_LINE0,TLE_LINE1,TLE_LINE2,SEMIMAJOR_AXIS,PERIOD,APOGEE,PERIGEE,DECAYED
55283.0,STARLINK-5317,PAYLOAD,2023-12-12 07:45:53,14.98330757,0.0002906,69.9997,307.8047,267.0649,93.0177,4.73e-05,4.71e-06,0.0,0 STARLINK-5317,1 55283U 23010Q   23346.32353369  .00000471  00000-0  47300-4 0  9991,2 55283  69.9997 307.8047 0002906 267.0649  93.0177 14.98330757 49898,6950.191,96.107,574.075,570.036,0.0
55283.0,STARLINK-5317,PAYLOAD,2023-12-12 22:11:05,14.98358973,0.0002596,69.9998,306.2895,267.9901,92.096,-0.00040533,-4.929e-05,0.0,0 STARLINK-5317,1 55283U 23010Q   23346.92437119 -.00004929  00000-0 -40533-3 0  9997,2 55283  69.9998 306.2895 0002596 267.9901  92.0960 14.98358973 50282,6950.103,96.105,573.773,570.164,0.0
55283.0,STARLINK-5317,PAYLOAD,2023-12-13 07:47:53,14.9833425,0.0002767,69.9999,305.2801,264.3928,95.6916,5.6855e-05,5.86e-06,0.0,0 STARLINK-5317,1 55283U 23010Q   23347.32493005  .00000586  00000-0  56855-4 0  9996,2 55283  69.9999 305.2801 0002767 264.3928  95.6916 14.98334250 50045,6950.18,96.107,573.968,570.122,0.0
55283.0,STARLINK-5317,PAYLOAD,2023-12-13 22:13:06,14.98331441,0.0002679,70.0,303.7655,263.843,96.2424,2.191e-05,1.68e-06,0.0,0 STARLINK-5317,1 55283U 23010Q   23347.92577172  .00000168  00000-0  21910-4 0  9990,2 55283  70.0000 303.7655 0002679 263.8430  96.2424 14.98331441 50438,6950.188,96.107,573.915,570.191,0.0
55283.0,STARLINK-5317,PAYLOAD,2023-12-14 06:13:47,14.98331026,0.0002703,70.0001,302.9238,262.216,97.8692,1.4861e-05,8.4e-07,0.0,0 STARLINK-5317,1 55283U 23010Q   23348.25957187  .00000084  00000-0  14861-4 0  9999,2 55283  70.0001 302.9238 0002703 262.2160  97.8692 14.98331026 50486,6950.19,96.107,573.933,570.176,0.0
55283.0,STARLINK-5317,PAYLOAD,2023-12-14 22:15:07,14.98333551,0.0002718,70.0002,301.2413,257.3247,102.7608,6.7097e-06,-1.3e-07,0.0,0 STARLINK-5317,1 55283U 23010Q   23348.92716924 -.00000013  00000-0  67097-5 0  9998,2 55283  70.0002 301.2413 0002718 257.3247 102.7608 14.98333551 50580,6950.182,96.107,573.936,570.158,0.0
55283.0,STARLINK-5317,PAYLOAD,2023-12-15 06:15:47,14.9833367,0.0002733,70.0001,300.3995,256.7824,103.303,7.0475e-06,-9e-08,0.0,0 STARLINK-5317,1 55283U 23010Q   23349.26096842 -.00000009  00000-0  70475-5 0  9995,2 55283  70.0001 300.3995 0002733 256.7824 103.3030 14.98333670 50336,6950.182,96.107,573.946,570.147,0.0
55283.0,STARLINK-5317,PAYLOAD,2023-12-15 22:17:08,14.98324356,0.0002662,70.0004,298.7166,252.46,107.6269,-2.9568e-05,-4.46e-06,0.0,0 STARLINK-5317,1 55283U 23010Q   23349.92857554 -.00000446  00000-0 -29568-4 0  9995,2 55283  70.0004 298.7166 0002662 252.4600 107.6269 14.98324356 50731,6950.21,96.107,573.925,570.225,0.0
55283.0,STARLINK-5317,PAYLOAD,2023-12-16 03:05:33,14.98324149,0.0002661,70.0004,298.2116,252.2402,107.8467,-3.026e-05,-4.54e-06,0.0,0 STARLINK-5317,1 55283U 23010Q   23350.12885632 -.00000454  00000-0 -30260-4 0  9997,2 55283  70.0004 298.2116 0002661 252.2402 107.8467 14.98324149 50460,6950.211,96.107,573.925,570.227,0.0
55283.0,STARLINK-5317,PAYLOAD,2023-12-16 06:17:49,14.98324548,0.0002655,70.0004,297.875,252.3642,107.7227,-2.4833e-05,-3.89e-06,0.0,0 STARLINK-5317,1 55283U 23010Q   23350.26237651 -.00000389  00000-0 -24833-4 0  9990,2 55283  70.0004 297.8750 0002655 252.3642 107.7227 14.98324548 50780,6950.21,96.107,573.92,570.229,0.0
55283.0,STARLINK-5317,PAYLOAD,2023-12-16 22:19:09,14.98328494,0.0002627,70.0004,296.1913,249.2283,110.8595,9.4205e-06,1.9e-07,0.0,0 STARLINK-5317,1 55283U 23010Q   23350.92997417  .00000019  00000-0  94205-5 0  9995,2 55283  70.0004 296.1913 0002627 249.2283 110.8595 14.98328494 50886,6950.198,96.107,573.888,570.237,0.0
55283.0,STARLINK-5317,PAYLOAD,2023-12-17 03:07:34,14.98328035,0.0002635,70.0005,295.6867,249.5961,110.4915,3.5467e-06,-5.1e-07,0.0,0 STARLINK-5317,1 55283U 23010Q   23351.13025497 -.00000051  00000-0  35467-5 0  9991,2 55283  70.0005 295.6867 0002635 249.5961 110.4915 14.98328035 50618,6950.199,96.107,573.895,570.233,0.0
55283.0,STARLINK-5317,PAYLOAD,2023-12-17 06:19:50,14.98328626,0.000263,70.0005,295.35,250.3835,109.704,1.0898e-05,3.7e-07,0.0,0 STARLINK-5317,1 55283U 23010Q   23351.26377474  .00000037  00000-0  10898-4 0  9993,2 55283  70.0005 295.3500 0002630 250.3835 109.7040 14.98328626 50935,6950.197,96.107,573.89,570.234,0.0
55283.0,STARLINK-5317,PAYLOAD,2023-12-17 22:21:09,14.98337356,0.0002786,70.0,293.6655,259.6097,100.4748,0.00017184,1.958e-05,0.0,0 STARLINK-5317,1 55283U 23010Q   23351.93136474  .00001958  00000-0  17184-3 0  9997,2 55283  70.0000 293.6655 0002786 259.6097 100.4748 14.98337356 51031,6950.17,96.107,573.971,570.099,0.0
55283.0,STARLINK-5317,PAYLOAD,2023-12-18 03:09:33,14.98340563,0.0002727,70.0001,293.1609,257.0891,102.9964,0.00020712,2.38e-05,0.0,0 STARLINK-5317,1 55283U 23010Q   23352.13164111  .00002380  00000-0  20712-3 0  9990,2 55283  70.0001 293.1609 0002727 257.0891 102.9964 14.98340563 50765,6950.16,96.106,573.921,570.13,0.0
55283.0,STARLINK-5317,PAYLOAD,2023-12-18 06:21:49,14.98342769,0.000271,70.0002,292.8244,257.1284,102.9572,0.00022543,2.599e-05,0.0,0 STARLINK-5317,1 55283U 23010Q   23352.26515834  .00002599  00000-0  22543-3 0  9992,2 55283  70.0002 292.8244 0002710 257.1284 102.9572 14.98342769 51087,6950.153,96.106,573.902,570.135,0.0
55283.0,STARLINK-5317,PAYLOAD,2023-12-18 22:23:11,14.98324427,0.0002893,70.0041,291.149,205.6254,154.4762,5.622e-06,-2.6e-07,0.0,0 STARLINK-5317,1 55283U 23010Q   23352.93277580 -.00000026  00000-0  56220-5 0  9994,2 55283  70.0041 291.1490 0002893 205.6254 154.4762 14.98324427 51187,6950.21,96.107,574.086,570.064,0.0
55283.0,STARLINK-5317,PAYLOAD,2023-12-19 03:11:36,14.98324898,0.0002803,70.0001,290.6374,251.8169,108.2685,-4.7185e-05,-6.56e-06,0.0,0 STARLINK-5317,1 55283U 23010Q   23353.13305756 -.00000656  00000-0 -47185-4 0  9993,2 55283  70.0001 290.6374 0002803 251.8169 108.2685 14.98324898 50910,6950.209,96.107,574.022,570.126,0.0
55283.0,STARLINK-5317,PAYLOAD,2023-12-19 06:23:51,14.98349452,0.000227,69.9999,290.3001,239.2912,120.8024,-0.00045221,-5.487e-05,0.0,0 STARLINK-5317,1 55283U 23010Q   23353.26657098 -.00005487  00000-0 -45221-3 0  9991,2 55283  69.9999 290.3001 0002270 239.2912 120.8024 14.98349452 50933,6950.133,96.106,573.575,570.42,0.0
55283.0,STARLINK-5317,PAYLOAD,2023-12-20 03:13:36,14.98333587,0.0002645,70.0008,288.1136,241.5764,118.5128,-9.9914e-05,-1.285e-05,0.0,0 STARLINK-5317,1 55283U 23010Q   23354.13445515 -.00001285  00000-0 -99914-4 0  9998,2 55283  70.0008 288.1136 0002645 241.5764 118.5128 14.98333587 51064,6950.182,96.107,573.885,570.208,0.0
55283.0,STARLINK-5317,PAYLOAD,2023-12-20 04:49:44,14.98336819,0.0002487,70.0006,287.9443,254.1532,105.9353,-4.8743e-05,-6.75e-06,0.0,0 STARLINK-5317,1 55283U 23010Q   23354.20121257 -.00000675  00000-0 -48743-4 0  9996,2 55283  70.0006 287.9443 0002487 254.1532 105.9353 14.98336819 51372,6950.172,96.107,573.765,570.308,0.0
55283.0,STARLINK-5317,PAYLOAD,2023-12-20 22:27:12,14.98331856,0.0002633,70.002,286.0951,226.2828,133.8113,0.00030473,3.545e-05,0.0,0 STARLINK-5317,1 55283U 23010Q   23354.93556410  .00003545  00000-0  30473-3 0  9996,2 55283  70.0020 286.0951 0002633 226.2828 133.8113 14.98331856 51485,6950.187,96.107,573.882,570.222,0.0
55283.0,STARLINK-5317,PAYLOAD,2023-12-21 03:15:35,14.98352735,0.0002634,70.0007,285.5878,257.405,102.6814,0.00042932,5.036e-05,0.0,0 STARLINK-5317,1 55283U 23010Q   23355.13583006  .00005036  00000-0  42932-3 0  9990,2 55283  70.0007 285.5878 0002634 257.4050 102.6814 14.98352735 51218,6950.123,96.106,573.818,570.157,0.0
55283.0,STARLINK-5317,PAYLOAD,2023-12-21 04:51:44,14.98337698,0.0002542,70.0006,285.4188,244.6993,115.3903,0.00026195,3.035e-05,0.0,0 STARLINK-5317,1 55283U 23010Q   23355.20260174  .00003035  00000-0  26195-3 0  9996,2 55283  70.0006 285.4188 0002542 244.6993 115.3903 14.98337698 51224,6950.169,96.107,573.801,570.267,0.0
55283.0,STARLINK-5317,PAYLOAD,2023-12-21 22:29:16,14.98309487,0.000283,70.0005,283.5679,266.3064,93.7771,-0.00018178,-2.26e-05,0.0,0 STARLINK-5317,1 55283U 23010Q   23355.93699081 -.00002260  00000-0 -18178-3 0  9992,2 55283  70.0005 283.5679 0002830 266.3064  93.7771 14.98309487 51639,6950.256,96.108,574.088,570.154,0.0
55283.0,STARLINK-5317,PAYLOAD,2023-12-22 03:17:40,14.98307925,0.000246,70.0009,283.0629,248.0105,112.0793,-0.00015663,-1.96e-05,0.0,0 STARLINK-5317,1 55283U 23010Q   23356.13727271 -.00001960  00000-0 -15663-3 0  9990,2 55283  70.0009 283.0629 0002460 248.0105 112.0793 14.98307925 51369,6950.261,96.108,573.836,570.416,0.0
55283.0,STARLINK-5317,PAYLOAD,2023-12-22 04:53:48,14.98309955,0.0002418,70.0007,282.8943,239.7327,120.3592,-0.0001657,-2.068e-05,0.0,0 STARLINK-5317,1 55283U 23010Q   23356.20403249 -.00002068  00000-0 -16570-3 0  9992,2 55283  70.0007 282.8943 0002418 239.7327 120.3592 14.98309955 51677,6950.255,96.108,573.8,570.439,0.0
55283.0,STARLINK-5317,PAYLOAD,2023-12-22 19:19:00,14.98332189,0.0002059,70.0007,281.3792,272.6694,87.423,-7.6143e-05,-1.001e-05,0.0,0 STARLINK-5317,1 55283U 23010Q   23356.80486157 -.00001001  00000-0 -76143-4 0  9996,2 55283  70.0007 281.3792 0002059 272.6694  87.4230 14.98332189 51461,6950.186,96.107,573.482,570.62,0.0
55283.0,STARLINK-5317,PAYLOAD,2023-12-22 22:31:16,14.9833132,0.0002556,69.9984,281.0364,264.5692,95.5176,-6.4046e-05,-8.57e-06,0.0,0 STARLINK-5317,1 55283U 23010Q   23356.93837986 -.00000857  00000-0 -64046-4 0  9997,2 55283  69.9984 281.0364 0002556 264.5692  95.5176 14.98331320 51784,6950.189,96.107,573.83,570.277,0.0
55283.0,STARLINK-5317,PAYLOAD,2023-12-23 03:19:39,14.98335402,0.0002354,70.0021,280.5398,221.6024,138.4956,-2.8232e-05,-4.3e-06,0.0,0 STARLINK-5317,1 55283U 23010Q   23357.13865563 -.00000430  00000-0 -28232-4 0  9996,2 55283  70.0021 280.5398 0002354 221.6024 138.4956 14.98335402 51518,6950.176,96.107,573.677,570.405,0.0
